[Satellite]
VERSION=1.1
NAME=GPS BIIF-12  (PRN 32)
NICKNAME=GPS BIIF-12  (PRN 32)
TLE1=1 41328U 16007A   20157.14123715  .00000076  00000-0  00000-0 0  9994
TLE2=2 41328  54.8258 176.9233 0041655 222.7215 137.0080  2.00557824 31708
STATUS=0
